MALLIGYONG-1            
1 58400U 23179A   24004.94336108  .00004656  00000+0  20769-3 0  9990
2 58400  97.4253 254.1361 0017243 118.9119 241.3849 15.21757547  6740
